#dP2023 12 21 12  0  0.00000000      96 __u+U IGS20 EXT  IAC
## 2293 388800.00000000   900.00000000 60299 0.5000000000000
+  120   C06C07C08C09C10C11C12C13C14C16C19C20C21C22C23C24C25
+        C26C27C28C29C30C32C33C34C35C36C37C38C39C40C41C42C43
+        C44C45C46E02E03E04E05E07E08E09E10E11E12E13E14E15E18
+        E19E21E24E25E26E27E30E31E33E34E36G01G02G03G04G05G06
+        G07G08G09G10G11G12G13G14G15G16G17G18G19G20G21G22G23
+        G24G25G26G27G28G29G30G31G32J02J03J04R01R02R03R04R05
+        R07R08R09R11R12R13R14R15R16R17R18R19R20R21R22R24R25
+        R26  0  0  0  0  0  0  0  0  0  0  0  0  0  0  0  0
++        10 11  9  0 12  9  9  7  7  9  8  8 10 10  7  8  8
++         9  7  8  7  7  7  8  7  8  7  8  9 11 11  8  8  8
++         8  8  7  7  7  7  7  8  8  7  8  8  8  7  7  7  8
++         7  7  8  8  8  8  7  7  8  7  8  8  6  8  8  9  7
++         8  8  8  7  7  7  8  7  7  7  7  7  8  9  8  7  7
++         6  7  7  9  7  7  8  8  7 10 10  8  8  8  8  7 10
++         9  8  8  7  8  8  8  8  8  8  7  9  7  9  8  8  8
++         9  0  0  0  0  0  0  0  0  0  0  0  0  0  0  0  0
%c M  cc GPS ccc cccc cccc cccc cccc ccccc ccccc ccccc ccccc
%c cc cc ccc ccc cccc cccc cccc cccc ccccc ccccc ccccc ccccc
%f  0.0000000  0.000000000  0.00000000000  0.000000000000000
%f  0.0000000  0.000000000  0.00000000000  0.000000000000000
%i    0    0    0    0      0      0      0      0         0
%i    0    0    0    0      0      0      0      0         0
/* IAC                                ULTRA-RAPID PREDICTION
/* S/V CLOCKS ARE ALIGNED TO GNSS TIME                      
/* G:C1WC2W R:C1PC2P E:C1XC5X C:C2IC6I J:C1CC2S             
/* PCV:IGS20_2290 OL/AL:FES2004  NONE     YN ORB:CoN CLK:CoN
*  2023 12 21 23 45  0.00000000
PC06  -6348.685422  39496.159040  13803.051060    220.432741
PC07  -6692.973132  26675.919922 -31884.555851   -512.327976
PC08 -18701.736505  30152.726578  22626.587258    165.342309
PC09   -344.098335  42395.342156   3286.181510   -248.693052
PC10   1253.243310  28063.921587 -31008.981681    -62.536817
PC11   -922.610610  23882.803498 -14317.672673    318.358337
PC12 -13290.393278   8156.822150 -23095.126628    818.730266
PC13 -12489.903923  30594.455616  26185.062900    398.523519
PC14  -6391.688085  14837.754475  22770.605434   -199.095538
PC16  -7092.106310  38842.914829  15498.469001   -238.798860
PC19  -4883.586690 -15842.927606 -22428.684567   -948.760991
PC20  14811.910952 -12073.157349 -20320.606886      7.394933
PC21 -27334.018093    575.592182   5650.781134   -966.612154
PC22 -22909.635476 -10769.891541 -11769.331051   -177.559441
PC23  11312.125019  12027.930970 -22501.745772   -800.444677
PC24 -17822.848465  21348.733820   2087.357772    715.162604
PC25  -3436.116807  23354.677837 -14880.268879    283.560152
PC26 -20636.743284   7880.978848  17009.234215   -223.577592
PC27  17142.542912   1161.835314  21976.478099    245.569843
PC28  17106.694331  18143.743910  12535.816044    185.911232
PC29  -7072.562058 -26168.905882   6622.138042    217.687747
PC30   7872.541664 -17197.892299  20507.910261    -11.077399
PC32  27341.729373   -705.986389  -5510.951546   -545.048839
PC33   4822.275077  15850.037871  22455.257634   -941.774670
PC34  -6813.182200  18467.866717 -19795.517039    330.056729
PC35 -17812.923816 -17431.209932 -12523.745538    475.313895
PC36   4663.235417 -23516.198053  14308.393127    -83.535182
PC37  20730.216427  -6858.980249 -17391.906063   -931.657413
PC38 -23416.070148  31603.232725  15014.197081    125.550160
PC39  -8423.671823  35978.139577  20545.292508     -6.239918
PC40 -11034.376826  20613.534657 -35082.294074    -48.811000
PC41  22378.511881  11105.229876  12480.774794   -874.655018
PC42 -16348.978419  11474.744591  19537.606822   -477.218866
PC43   6345.711071  26150.190440  -7440.380069     53.251817
PC44 -17352.745353   -601.659560 -21849.144700    330.010537
PC45 -11502.722052 -11595.142930  22618.696646    -56.903700
PC46  17401.007049 -21819.691963  -1116.604789   -109.391064
PE02  17315.051783 -17916.805892  15989.396899     88.574597
PE03   5769.827675 -16783.582819 -23697.798328    -81.709161
PE04  13354.785884  22985.922562  13024.770205   -285.514664
PE05  21347.568934   -890.395180 -20488.703185   4702.774270
PE07 -24468.016164 -15932.261494   4875.430728    -94.284588
PE08 -12893.211477 -22928.488196 -13582.655575   -195.842675
PE09  24427.163444  16015.150005  -4774.058334   -271.413695
PE10   8487.856987  21377.148488  18630.319651   -588.155248
PE11  13638.783311  11221.557654  23754.222146   3272.556988
PE12   2618.817728  27268.875022  11237.847338   -828.945827
PE13 -13301.619488 -11953.997435 -23574.593386    -19.732830
PE14 -13180.402581 -24183.398629  10416.022293    -11.625273
PE15  -2264.960872 -27473.691166 -10763.079524    -75.959286
PE18    762.867020  21122.088076 -17460.341401    121.573340
PE19  -8027.504859  15091.285226  24168.237958   -968.195716
PE21 -28016.036594   9496.607968    918.212993   -570.012918
PE24  22638.240472   5349.474946 -18339.532223   -498.884212
PE25  28095.094300  -9248.473995  -1296.188265     -1.634318
PE26 -16463.055807  10994.088757 -21992.441665    316.531841
PE27 -22924.553985  -4910.571062  18059.196831   -229.974900
PE30  -4004.853901 -16418.654846  24288.989445   -761.030651
PE31   4402.355563  16242.330931 -24348.347363    -12.175023
PE33 -10222.575045  26381.270208  -8678.112009      4.615780
PE34   9882.049163 -26692.349305   8148.010753    -84.659031
PE36  16389.522045 -10288.824024  22406.598650   -160.969324
PG01  13111.077224 -17333.096140  14685.242475    164.357889
PG02  14596.454759 -10901.666323  19756.939993   -512.221106
PG03  23187.036749 -11959.284533  -4790.779759     71.629319
PG04  14121.286038  -7244.672004 -21305.202920    245.725711
PG05 -25036.527184   4879.812408  -7752.689638   -155.012558
PG06  -7626.007602 -19136.260213 -16636.393342    470.650107
PG07   5027.161906 -25777.921161   -857.577339    -17.834659
PG08  20118.472317      4.934039  17462.656733   -158.182963
PG09   2781.266185 -16422.232896 -20763.375233     34.110053
PG10   6029.545169  13584.376197  22216.420798    -66.249632
PG11 -13138.998333  -8834.541597 -21307.624077   -510.080717
PG12 -24007.003142  10406.809169  -4613.521307   -459.875758
PG13 -21057.083513 -11020.808964  11874.630289    608.053655
PG14  -1745.766961 -15658.506705  21388.625891    277.351605
PG15 -20212.048874   2213.991972  16707.348950    109.307771
PG16  23650.261867   2577.964299 -12598.632282   -399.645583
PG17  -9389.797421 -21201.683364  13254.708353    721.565281
PG18  -4796.204544  26020.372815    162.513868   -512.417931
PG19 -16334.240110 -20743.435540   4107.942457    415.733257
PG20 -19061.823121  -3705.001232 -17987.122414    395.464724
PG21  15307.370766  -5855.551339  21211.998758    140.837895
PG22  -9156.104002 -13099.726037  21610.859515     61.883710
PG23  -7888.938401  16906.055103  18847.085291    120.430176
PG24 -14715.504342  10835.966825  18725.529624   -398.282747
PG25 -15272.134620  16675.940290 -14040.027067    482.389441
PG26  17439.041835   7410.786665 -18885.167158    207.274521
PG27  22694.337870  12080.522710   7234.870209    -85.872316
PG28   7140.198565  21290.932584 -14209.418089    -76.420142
PG29  -4841.715111  15326.031672 -21171.102745   -609.561772
PG30  -2266.742096 -24858.696643   8798.154411   -454.732413
PG31  11644.481145  13546.509409 -19732.052807   -226.771647
PG32  13922.787052  20437.986769  10155.847326   -598.507504
PJ02 -35647.252067  17533.953803  -9513.354590     -0.688159
PJ03 -19041.715913  30864.567901 -16949.398396    -12.962971
PJ04 -27337.458900  27816.872480  22083.861603     74.752818
PR01 -13889.117695   6232.791925  20468.490479     72.689691
PR02   4468.004368  12207.147516  22003.552981    -22.338696
PR03  20142.714966  11505.779656  10728.324954     91.360403
PR04  24299.971702   4759.097438  -6143.234023    216.350103
PR05  15509.776105  -4604.186912 -19722.209021    124.174839
PR07 -20618.056528 -11246.545722  -9845.405091     71.866069
PR08 -24277.567836  -4358.707527   6479.224717    -73.764824
PR09   6795.000280 -18189.380965  16511.308979    160.050063
PR11 -17846.342768   5622.320873  17350.178861   -222.771319
PR12 -18520.845142  17524.971646   -210.237991     34.733593
PR13  -9051.152875  18626.889664 -14907.552945    -42.518534
PR14   7751.838158   8006.494537 -22939.037080     25.802894
PR15  18482.357965  -6571.269653 -16291.975658     83.765140
PR16  18502.706169 -17535.362397    -63.724253     21.766484
PR17  10157.012113  19885.785993  12310.815406     45.557943
PR18  11332.674600   4920.180868  22347.656615    118.067099
PR19   7821.370292 -11036.970885  21634.045102   -259.163729
PR20  -1647.748776 -24714.433241   6024.554422   -105.572841
PR21 -10083.561719 -19676.092487 -12736.856431    -62.814344
PR22 -11467.985033  -4015.597545 -22394.272953     99.409491
PR24   2841.950338  24770.451364  -5326.939931    -36.852816
PR25  -9471.648771 -20282.375575 -12239.155029      4.024304
PR26 -24444.593266  -4638.674510   5682.481220    -22.869537
EOF
